[
    {
        "Altitude(m)": 570986.9733660949,
        "Argument of Periapsis(deg)": 0.033114955553567506,
        "Eccentricity": 0.0,
        "Inclination(deg)": 53.0,
        "Latitude(deg)": -50.94390790075176,
        "Longitude(deg)": -116.52575040264946,
        "Mean Anomaly(deg)": 255.91256433788797,
        "RAAN(deg)": 99.95071684264008,
        "Satellite Name": "Starlink Shell 1 452",
        "Satellite Number": 452,
        "Semi-Major Axis(m)": 6931778.249405717,
        "Time(s)": 950
    },
    {
        "Altitude(m)": 571060.7583643337,
        "Argument of Periapsis(deg)": 0.03346353403307874,
        "Eccentricity": 0.0,
        "Inclination(deg)": 53.0,
        "Latitude(deg)": -51.131446851708745,
        "Longitude(deg)": -115.62179550659646,
        "Mean Anomaly(deg)": 256.53939554144466,
        "RAAN(deg)": 99.95019807256261,
        "Satellite Name": "Starlink Shell 1 452",
        "Satellite Number": 452,
        "Semi-Major Axis(m)": 6931778.249405717,
        "Time(s)": 960
    },
    {
        "Altitude(m)": 571131.3752999027,
        "Argument of Periapsis(deg)": 0.03381211251258998,
        "Eccentricity": 0.0,
        "Inclination(deg)": 53.0,
        "Latitude(deg)": -51.31128107657841,
        "Longitude(deg)": -114.71032553040024,
        "Mean Anomaly(deg)": 257.1662267450013,
        "RAAN(deg)": 99.94967930248514,
        "Satellite Name": "Starlink Shell 1 452",
        "Satellite Number": 452,
        "Semi-Major Axis(m)": 6931778.249405717,
        "Time(s)": 970
    },
    {
        "Altitude(m)": 571198.7960314795,
        "Argument of Periapsis(deg)": 0.034160690992101214,
        "Eccentricity": 0.0,
        "Inclination(deg)": 53.0,
        "Latitude(deg)": -51.483301562785144,
        "Longitude(deg)": -113.79155486482976,
        "Mean Anomaly(deg)": 257.7930579485581,
        "RAAN(deg)": 99.94916053240767,
        "Satellite Name": "Starlink Shell 1 452",
        "Satellite Number": 452,
        "Semi-Major Axis(m)": 6931778.249405717,
        "Time(s)": 980
    },
    {
        "Altitude(m)": 571262.9936840003,
        "Argument of Periapsis(deg)": 0.034509269471612446,
        "Eccentricity": 0.0,
        "Inclination(deg)": 53.0,
        "Latitude(deg)": -51.64740213784744,
        "Longitude(deg)": -112.86571359890357,
        "Mean Anomaly(deg)": 258.4198891521148,
        "RAAN(deg)": 99.9486417623302,
        "Satellite Name": "Starlink Shell 1 452",
        "Satellite Number": 452,
        "Semi-Major Axis(m)": 6931778.249405717,
        "Time(s)": 990
    }
]